State,Agency Name,Agency Type,URL,COG is MPO Host,Planning Website URL,Recent Planning Documents URL,ITS Architecture URL,Public Minutes URL,Latitude,Longitude,Zip Code
Alabama,RPC of Greater Birmingham,COG,https://www.rpcgb.org/about-and-more/rfps-rfqs/,Yes,https://www.rpcgb.org/transportation/,https://www.rpcgb.org/tip-documents/,https://www.rpcgb.org/wp-content/uploads/2023/06/BHM-ITS-Architecture-Update-Final-Report-December-2018-1.pdf,https://www.rpcgb.org/about-and-more/commission-board-and-committees/,33.5186,-86.8104,35203
Alabama,East Alabama RPDC,PDD,https://earpdc.org/co-op-purchasing/,Yes,https://earpdc.org/transportation/,https://earpdc.org/long-range-transportation-plan/,https://earpdc.org/wp-content/uploads/2023/12/2020-04-16-Anniston-MPO-ITS-Architecture-Update-Final-Report.pdf,https://earpdc.org/about-us/board-of-directors/,33.6596,-85.8316,36201
Alabama,South Alabama RPC,COG,https://sarpc.org/bids/,Yes,https://sarpc.org/departments/transportation/,https://sarpc.org/transportation/transportation-improvement-program-tip/,https://sarpc.org/wp-content/uploads/2023/08/Mobile-Regional-ITS-Architecture_Final-Report_2023.pdf,https://sarpc.org/commission/meeting-agendas-minutes/,30.6954,-88.0399,36602
Alabama,Top of Alabama RCOG,COG,https://tarcog.us/improving-communities/cooperative-purchasing/,No,https://tarcog.us/transportation/,https://tarcog.us/wp-content/uploads/2022/08/TARCOG-RTP-2045_Final-Report_July2022.pdf,https://www.dot.state.al.us/programs/its/ALDOT_Statewide_ITS_Architecture_2022_Final_Report.pdf,https://tarcog.us/board-of-directors/,34.7304,-86.5861,35801
Alabama,Lee-Russell COG,COG,https://www.lrcog.com/,Yes,https://www.lrcog.com/transportation-planning,https://www.lrcog.com/_files/ugd/09931a_4e1f7480a4554b72b380a06691452932.pdf,https://www.lrcog.com/_files/ugd/09931a_e29729a997384a30a8c2f15392d4760a.pdf,https://www.lrcog.com/board-of-directors,32.6099,-85.3554,36801
Alabama,North-Central Alabama RCOG,COG,https://www.narcog.org/,Yes,https://www.narcog.org/transportation-planning,https://www.narcog.org/transportation-improvement-program,https://www.narcog.org/_files/ugd/050851_01529182d334469085a6a66166a92842.pdf,https://www.narcog.org/board-meetings,34.6059,-86.9611,35601
Alabama,Northwest Alabama COLOG,COG,https://www.nacolg.org/,Yes,https://www.nacolg.org/shoals-mpo,https://www.nacolg.org/tip,https://www.nacolg.org/_files/ugd/076161_37202b28c11743e590740954b4231846.pdf,https://www.nacolg.org/board-meetings,34.8015,-87.6764,35661
Alabama,West Alabama Regional Commission,COG,https://www.warc.info/,Yes,https://www.warc.info/transportation-planning,https://www.warc.info/tip,https://www.warc.info/_files/ugd/22c023_8c264c86a34a417887556f081f211974.pdf,https://www.warc.info/board-of-directors,33.2098,-87.5692,35476
Alabama,Central Alabama RPDC,PDD,https://www.carpdc.com/,Yes,https://www.carpdc.com/transportation,https://www.carpdc.com/comprehensive-plans,https://www.carpdc.com/_files/ugd/7c2338_2492167196014457a3e743a123f15082.pdf,https://www.carpdc.com/board-of-directors,32.3792,-86.3077,36104
Alabama,Huntsville Area MPO (HATS),MPO,https://www.huntsvilleal.gov/business/bids-and-procurement/,N/A,https://www.huntsvilleareampo.org/,https://www.huntsvilleareampo.org/resources/plans-and-documents/,https://www.huntsvilleareampo.org/wp-content/uploads/2023/07/Huntsville-Area-MPO-ITS-Architecture-Update-Final-Report_2023.pdf,https://www.huntsvilleareampo.org/resources/agendas-and-minutes/,34.7304,-86.5861,35801
Alabama,Birmingham-Jefferson County Transit (MAX),Transit Agency,https://maxtransit.org/procurement-2/,N/A,https://maxtransit.org/about-us/reports-and-documents/,https://maxtransit.org/wp-content/uploads/2023/10/Together-We-Move-Plan-Booklet-Final-9.29.23.pdf,https://www.rpcgb.org/wp-content/uploads/2023/06/BHM-ITS-Architecture-Update-Final-Report-December-2018-1.pdf,https://maxtransit.org/about-us/board-meetings/,33.5207,-86.8025,35203
Alabama,Montgomery Transit (The M),Transit Agency,https://www.mc-ala.org/departments/purchasing,N/A,https://www.montgomerytransit.com/,https://www.montgomerytransit.com/wp-content/uploads/2022/01/M-Transit-TDP-Final-Report-1.18.22.pdf,https://www.carpdc.com/_files/ugd/7c2338_2492167196014457a3e743a123f15082.pdf,https://www.mc-ala.org/government/commission-meetings,32.3668,-86.2999,36104
Alabama,The WAVE Transit System (Mobile),Transit Agency,https://www.wavetransit.com/procurement/,N/A,https://www.wavetransit.com/about/,https://www.wavetransit.com/wp-content/uploads/2022/01/The-Wave-Transit-System-TDP-FY2022-2026-FINAL.pdf,https://sarpc.org/wp-content/uploads/2023/08/Mobile-Regional-ITS-Architecture_Final-Report_2023.pdf,https://www.thewavetransit.com/about/board-of-commissioners/,30.6954,-88.0399,36603
Alabama,Tuscaloosa Transit Authority,Transit Agency,https://www.tuscaloosa.com/bids,N/A,https://www.tuscaloosatransit.com/about-tta,https://www.tuscaloosatransit.com/wp-content/uploads/2023/07/Tuscaloosa-Transit-Authority-TDP-FINAL-DRAFT-2023.pdf,https://www.warc.info/_files/ugd/22c023_8c264c86a34a417887556f081f211974.pdf,https://www.tuscaloosatransit.com/about-tta/board-of-directors,33.2098,-87.5692,35401
Alabama,Alabama State Port Authority,Port Authority,https://www.alports.com/business/procurement/,N/A,https://www.alports.com/resources/,https://www.alports.com/wp-content/uploads/2022/09/ASPA-2021-Annual-Report-Final.pdf,N/A,https://www.alports.com/about/leadership/board-of-directors/,30.6954,-88.0399,36602
Alabama,ALDOT MPO Program,State DOT,https://www.dot.state.al.us/programs/mpo.html,N/A,https://www.dot.state.al.us/programs.html,https://www.dot.state.al.us/programs/stip.html,https://www.dot.state.al.us/programs/its/ALDOT_Statewide_ITS_Architecture_2022_Final_Report.pdf,https://www.dot.state.al.us/news/meetings.html,32.3668,-86.2999,36130
Arkansas,Southeast Arkansas EDD,PDD,https://southeastarkansas.org/rfprfq,Yes,https://southeastarkansas.org/transportation,https://southeastarkansas.org/sarpc,https://www.ardot.gov/wp-content/uploads/2023/03/ARDOT-Statewide-ITS-Architecture-Final-Report-with-Appendices_2023.pdf,https://southeastarkansas.org/board-of-directors,34.2284,-92.0313,71601
Arkansas,Southwest Arkansas PDD,PDD,https://www.southwestar.org/bids,No,https://www.swapdd.com/transportation,N/A,https://www.ardot.gov/wp-content/uploads/2023/03/ARDOT-Statewide-ITS-Architecture-Final-Report-with-Appendices_2023.pdf,https://www.swapdd.com/board-of-directors,34.1209,-93.0566,71753
Arkansas,Western Arkansas PDD,PDD,https://wapdd.org/,Yes,https://www.frontierMPO.org/,https://www.frontiermpo.org/transportation-improvement-program,https://www.frontiermpo.org/_files/ugd/21cb2b_b7875b11176b4594b295d8623b7e0892.pdf,https://wapdd.org/board-of-directors,35.3859,-94.3985,72901
Arkansas,West Central Arkansas PDD,PDD,https://wcapdd.org/,Yes,https://wcapdd.org/tri-lakes-mpo/about-mpo,https://wcapdd.org/tip,https://www.ardot.gov/wp-content/uploads/2023/03/ARDOT-Statewide-ITS-Architecture-Final-Report-with-Appendices_2023.pdf,https://wcapdd.org/board-of-directors,34.5037,-93.0552,71913
Arkansas,Central AR Regional Transportation Study (CARTS),MPO,https://metroplan.org/about/doing-business-with-metroplan,N/A,https://metroplan.org/transportation-planning/,https://metroplan.org/move-2050/,https://metroplan.org/wp-content/uploads/2023/08/ITS-Architecture-Update-Final-Report.pdf,https://metroplan.org/about/board-and-committees/,34.7465,-92.2896,72201
Arkansas,Rock Region METRO,Transit Agency,https://rrmetro.org/about-metro/doing-business/,N/A,https://rrmetro.org/about-metro/reports-and-publications/,https://rrmetro.org/wp-content/uploads/2024/02/METRO-2030-Final-Report.pdf,https://metroplan.org/wp-content/uploads/2023/08/ITS-Architecture-Update-Final-Report.pdf,https://rrmetro.org/about-metro/board-of-directors/,34.7465,-92.2896,72114
Arkansas,Fort Smith Transit (FST),Transit Agency,https://www.fortsmithar.gov/government/departments/finance,N/A,https://www.fortsmithar.gov/government/departments/transit/transit-development-plan,https://www.fortsmithar.gov/files/assets/public/v/1/departments/transit/documents/tdp/fort-smith-transit-development-plan-2023-update.pdf,https://www.frontiermpo.org/_files/ugd/21cb2b_b7875b11176b4594b295d8623b7e0892.pdf,https://www.fortsmithar.gov/government/city-boards-commissions/citizen-advisory-committees/arkansas-river-valley-area-council,35.3859,-94.3985,72901
Arkansas,Ozark Regional Transit (ORT),Transit Agency,https://www.ozark.org/,N/A,https://www.ozark.org/about-us,https://www.ozark.org/ort-tdp,https://www.nwarpc.org/transportation/its/,https://www.ozark.org/board-of-directors,36.1956,-94.1288,72764
Arkansas,Jonesboro Economical Transportation (JET),Transit Agency,https://www.jonesboro.org/bids.aspx,N/A,https://www.jonesboro.org/191/Metropolitan-Planning-Organization,https://www.jonesboro.org/DocumentCenter/View/1131/2045-Metropolitan-Transportation-Plan-PDF,https://www.ardot.gov/wp-content/uploads/2023/03/ARDOT-Statewide-ITS-Architecture-Final-Report-with-Appendices_2023.pdf,https://www.jonesboro.org/207/City-Council-Agendas-Minutes,35.8423,-90.7043,72401
Arkansas,Little Rock Port Authority,Port Authority,https://www.littlerock.gov/business/online-bids/,N/A,https://www.portoflittlerock.com/about-us/planning-development,https://www.portoflittlerock.com/media/1143/2019-master-plan-update.pdf,N/A,https://www.littlerock.gov/for-our-residents/board-and-commissions/board-and-commission-list/port-authority-board-of-directors/,34.7465,-92.2896,72206
Arkansas,ARBuy Statewide Portal,State-level Portal,https://arbuy.arkansas.gov,N/A,N/A,N/A,N/A,N/A,N/A,,
Arkansas,ARDOT Procurement,State DOT,https://www.ardot.gov/divisions/procurement/,N/A,https://www.ardot.gov/divisions/transportation-planning-policy/,https://www.ardot.gov/divisions/transportation-planning-policy/stip-and-stip-process/,https://www.ardot.gov/wp-content/uploads/2023/03/ARDOT-Statewide-ITS-Architecture-Final-Report-with-Appendices_2023.pdf,https://www.ardot.gov/commission/commission-meeting-agendas-minutes/,34.7465,-92.2896,72209
Florida,Apalachee RPC,COG,https://www.arpc.org/procurements,Yes,https://www.arpc.org/crtpa,https://www.arpc.org/transportation-improvement-program-tip,https://www.arpc.org/_files/ugd/a2e16c_27918a02307f43a992e21262d1c69c11.pdf,https://www.arpc.org/agendas-minutes,30.4383,-84.2807,32301
Florida,Central Florida RPC,COG,https://www.cfrpc.org/doingbusiness,Yes,https://www.cfrpc.org/heartland-regional-tpo,https://www.cfrpc.org/tip,https://www.cfrpc.org/s/ITS-Master-Plan-Update-Final-Report-1.pdf,https://www.cfrpc.org/meetings,27.4989,-81.5312,33830
Florida,East Central Florida RPC,COG,https://ecfrpc.org/about-us/procurement/,No,https://ecfrpc.org/transportation/,https://ecfrpc.org/transportation-plans/,https://metroplanorlando.gov/wp-content/uploads/2023/05/Regional-ITS-Architecture-Master-Plan-2022-Update-FINAL-REPORT.pdf,https://ecfrpc.org/about-us/meetings/,28.5383,-81.3792,32801
Florida,Emerald Coast Regional Council,COG,https://ecrc.org/procurement/,Yes,https://ecrc.org/transportation,https://ecrc.org/okaloosa-walton-tpo,https://ecrc.org/wp-content/uploads/2023/03/FA-TPO-ITS-Master-Plan-Final-Report-2021.pdf,https://ecrc.org/meetings/,30.4213,-87.2169,32502
Florida,North Central Florida RPC,COG,https://ncfrpc.info/procurement/,Yes,https://ncfrpc.info/transportation/,https://ncfrpc.info/mtpo/tip/,https://ncfrpc.info/wp-content/uploads/2023/04/2016-MTPO-ITS-Plan.pdf,https://ncfrpc.info/meetings/,29.6516,-82.3248,32601
Florida,South Florida RPC,COG,https://sfregionalcouncil.org/requests-for-proposals/,No,https://sfregionalcouncil.org/regional-planning/,https://sfregionalcouncil.org/category/transportation/,https://www.browardmpo.org/images/ITS/2022_Broward_ITS_Master_Plan_Update_Final_Report_2022-12-07.pdf,https://sfregionalcouncil.org/calendar/,26.1224,-80.1373,33021
Florida,Tampa Bay RPC,COG,https://tbrpc.org/about/rfp/,No,https://tbrpc.org/transportation/,https://tbrpc.org/resources/plans-and-publications/,https://www.fdot.gov/traffic/its/projects-deploy/arch-strat-plans/d7-its-master-plan,https://tbrpc.org/meetings-2/,27.9506,-82.4572,33716
Florida,Broward MPO,MPO,https://www.browardmpo.org/procurement,N/A,https://www.browardmpo.org/index.php/plans-programs,https://www.browardmpo.org/index.php/major-projects/transportation-improvement-program-tip,https://www.browardmpo.org/images/ITS/2022_Broward_ITS_Master_Plan_Update_Final_Report_2022-12-07.pdf,https://www.browardmpo.org/index.php/meetings-events/board-agendas-minutes,26.1224,-80.1373,33301
Florida,Collier MPO,MPO,https://colliermpo.org/index.aspx?page=11,N/A,https://colliermpo.org/plans-and-programs,https://colliermpo.org/transportation-improvement-program-tip,https://colliermpo.org/wp-content/uploads/2023/12/Collier-MPO-ITS-Master-Plan-Final-Report-12-8-23.pdf,https://colliermpo.org/meetings-agendas-minutes/,26.142,-81.7948,34112
Florida,Forward Pinellas,MPO,https://forwardpinellas.org/about-us/doing-business-with-us,N/A,https://forwardpinellas.org/plans-programs/,https://forwardpinellas.org/plans-programs/transportation-improvement-program-tip/,https://forwardpinellas.org/wp-content/uploads/2021/04/ITS-Master-Plan-Final-Report-2019-01-23.pdf,https://forwardpinellas.org/about-us/meetings-agendas/,27.7676,-82.6403,33756
Florida,LYNX (Orlando),Transit Agency,https://www.golynx.com/corporate/procurement.stml,N/A,https://www.golynx.com/corporate-info/reports-and-statistics.stml,https://www.golynx.com/core/fileparse.php/127/urlt/LYNX-TDP-Annual-Update-2023-FINAL.pdf,https://metroplanorlando.gov/wp-content/uploads/2023/05/Regional-ITS-Architecture-Master-Plan-2022-Update-FINAL-REPORT.pdf,https://www.golynx.com/corporate-info/board-of-directors/board-meetings.stml,28.5383,-81.3792,32801
Florida,HART (Tampa),Transit Agency,https://www.gohart.org/pages/business-procurement.aspx,N/A,https://www.gohart.org/pages/aboutus-reports.aspx,https://www.gohart.org/sites/default/files/2024-01/FY24-FY33_TDP_Annual_Update_Final_10.2.23.pdf,https://www.fdot.gov/traffic/its/projects-deploy/arch-strat-plans/d7-its-master-plan,https://www.gohart.org/pages/aboutus-meetings.aspx,27.9506,-82.4572,33605
Florida,JTA (Jacksonville),Transit Agency,https://www.jtafla.com/business-center/procurement/,N/A,https://www.jtafla.com/about-jta/reports-and-publications/,https://www.jtafla.com/media/p5l1e10r/2023-tdp-annual-report-final-for-web.pdf,https://www.jtafla.com/media/j40q2jb1/its-strategic-plan-2021-2025.pdf,https://www.jtafla.com/about-jta/board-of-directors/board-meetings/,30.3322,-81.6557,32202
Florida,Tri-Rail (South Florida),Transit Agency,https://www.tri-rail.com/pages/view/procurement,N/A,https://www.sfrta.fl.gov/resources/,https://www.sfrta.fl.gov/wp-content/uploads/2023/09/FY24-28-TIP-Adopted-by-Board-092223.pdf,https://www.browardmpo.org/images/ITS/2022_Broward_ITS_Master_Plan_Update_Final_Report_2022-12-07.pdf,https://www.sfrta.fl.gov/board-meetings/,26.1224,-80.1373,33069
Florida,Pinellas Suncoast Transit Authority (PSTA),Transit Agency,https://psta.bonfirehub.com/opportunities/193445,N/A,https://www.psta.net/about-psta/psta-documents-and-reports/,https://www.psta.net/media/1169/psta-fy2024-2033-tdp-final.pdf,https://forwardpinellas.org/wp-content/uploads/2021/04/ITS-Master-Plan-Final-Report-2019-01-23.pdf,https://www.psta.net/about-psta/board-of-directors/board-meetings-agendas-and-minutes/,27.7676,-82.6403,33716
Florida,Miami-Dade Transit (MDT),Transit Agency,https://supplier.miamidade.gov/psc/EXTSUPP/SUPPLIER/ERP/c/SCP_PUBLIC_MENU_FL.SCP_PUB_WEL_CMP_FL.GBL,N/A,https://www.miamidade.gov/global/transportation-publicworks/home.page,https://www.miamidade.gov/transportation-publicworks/transit-development-plan.asp,https://www.miamidade.gov/transportation-publicworks/library/reports/its-master-plan.pdf,https://www.miamidade.gov/global/transportation-publicworks/transportation-and-mobility-committee.page,25.7617,-80.1918,33130
Florida,Port Canaveral,Port Authority,https://www.portcanaveral.com/Business/Cargo/Purchasing,N/A,https://www.portcanaveral.com/About/Plans-Reports,https://www.portcanaveral.com/getmedia/e892782e-9907-422c-a236-40e1188c83e0/2022-Master-Plan-Update-FINAL-ADOPTED-01-25-23,N/A,https://www.portcanaveral.com/About/Commission-Meetings,28.4075,-80.6049,32920
Florida,Port Everglades,Port Authority,https://www.porteverglades.net/business/procurement/,N/A,https://www.porteverglades.net/about-us/master-plan/,https://www.porteverglades.net/about-us/master-plan/,N/A,https://www.broward.org/Commission/Pages/Meetings.aspx,26.092,-80.1165,33316
Florida,JAXPORT,Port Authority,https://www.jaxport.com/business/procurement/,N/A,https://www.jaxport.com/about-jaxport/master-plan/,https://www.jaxport.com/wp-content/uploads/2019/12/JAXPORT-2019-Strategic-Master-Plan-Update-FINAL-12-09-19.pdf,N/A,https://www.jaxport.com/about-jaxport/board-of-directors/board-meetings/,30.3322,-81.6557,32226
Florida,PortMiami,Port Authority,https://www.miamidade.gov/portmiami/procurement.page,N/A,https://www.miamidade.gov/portmiami/master-plan.asp,https://www.miamidade.gov/portmiami/library/master-plan-2035.pdf,N/A,https://www.miamidade.gov/global/government/boards/seaport-committee.page,25.7743,-80.1325,33132
Florida,Port Tampa Bay,Port Authority,https://www.porttb.com/procurement,N/A,https://www.porttb.com/master-plan,https://www.porttb.com/master-plan,N/A,https://www.porttb.com/board-meetings,27.9506,-82.4572,33602
Florida,MyFloridaMarketPlace (VBS),State-level Portal,https://vendor.myfloridamarketplace.com/search/bids,N/A,N/A,N/A,N/A,N/A,N/A,,
Florida,FDOT Procurement,State DOT,https://www.fdot.gov/procurement,N/A,https://www.fdot.gov/planning,https://www.fdot.gov/work-program/tip,https://www.fdot.gov/traffic/its/projects-deploy/arch-strat-plans,https://www.fdot.gov/agencyresources/meetings.shtm,30.4383,-84.2807,32399
Georgia,Atlanta Regional Commission (ARC),COG,https://atlantaregional.org/about-arc/procurement-contracts/,Yes,https://atlantaregional.org/transportation-mobility/,https://atlantaregional.org/transportation-mobility/transportation-improvement-program-tip/,https://atlantaregional.org/wp-content/uploads/2023/07/atl-regional-its-architecture-v5.0-final-report.pdf,https://atlantaregional.org/about-arc/arc-board/board-meetings-materials/,33.749,-84.388,30303
Georgia,Middle Georgia RC,COG,https://www.middlegeorgiarc.org/requests-for-proposals-qualifications/,No,https://www.middlegeorgiarc.org/planning/,https://www.middlegeorgiarc.org/transportation-planning/,https://www.gdot.ga.gov/PartnerSmart/TransportationOptions/ITS/Pages/Architecture.aspx,https://www.middlegeorgiarc.org/council-meetings/,32.8407,-83.6324,31201
Georgia,Southern Georgia RC,COG,https://www.sgrc.us/rfps.html,Yes,https://www.sgrc.us/transportation.html,https://www.sgrc.us/vlmpo_tip.html,https://www.sgrc.us/documents/transportation/VLMPO_ITS_Plan_Update_2019.pdf,https://www.sgrc.us/council_agendas___minutes.html,30.8332,-83.2785,31601
Georgia,Coastal RC of Georgia,COG,https://www.coastalrc.ga.gov/contracts,No,https://www.coastalrc.ga.gov/planning,https://www.coastalrc.ga.gov/transportation,https://www.thempc.org/core/its,https://www.coastalrc.ga.gov/councilagendas,31.8457,-81.4432,31302
Georgia,Southwest Georgia RC,COG,https://www.swgrc.org/procurement,Yes,https://www.swgrc.org/transportation-1,https://www.swgrc.org/amats-tip,https://www.swgrc.org/s/AMATS-ITS-Final-Report.pdf,https://www.swgrc.org/council-meetings,31.5785,-84.1557,31730
Georgia,Georgia Mountains RC,COG,https://www.gmrc.ga.gov/rfp,Yes,https://www.ghmpo.org/,https://www.ghmpo.org/_files/ugd/589b53_317a6a43922e4787a2a16d0144f77c8e.pdf,https://www.ghmpo.org/_files/ugd/589b53_043438a2e4a144b2a3330691d5727d2c.pdf,https://www.gmrc.ga.gov/council-meetings,34.2979,-83.8241,30501
Georgia,Northwest Georgia RC,COG,https://www.nwgrc.org/procurement-opportunities,Yes,https://www.nwgrc.org/transportation-planning,https://www.nwgrc.org/transportation-improvement-program,https://www.nwgrc.org/_files/ugd/37602e_504b2b0051e84e55938885b591b7d853.pdf,https://www.nwgrc.org/council-meetings,34.257,-85.1646,30161
Georgia,MARTA (Atlanta),Transit Agency,https://itsmarta.com/procurement.aspx,N/A,https://www.itsmarta.com/current-projects.aspx,https://www.itsmarta.com/marta-2040.aspx,https://atlantaregional.org/wp-content/uploads/2023/07/atl-regional-its-architecture-v5.0-final-report.pdf,https://itsmarta.com/board-meetings.aspx,33.749,-84.388,30303
Georgia,Chatham Area Transit (CAT),Transit Agency,https://www.catchacat.org/about-cat/doing-business-with-cat/,N/A,https://www.catchacat.org/about-cat/planning-and-development/,https://www.catchacat.org/wp-content/uploads/2023/07/CAT-TDP-FY24-28-FINAL-062723.pdf,https://www.thempc.org/core/its,https://www.catchacat.org/about-cat/cat-board/meetings-agendas/,32.0809,-81.0912,31401
Georgia,Augusta Transit,Transit Agency,https://www.augustaga.gov/1307/ARCBid---Augusta-Bid-Database,N/A,https://www.augustaga.gov/2365/Transportation,https://www.augustaga.gov/DocumentCenter/View/14292/Augusta-Transit-Route-and-System-Plan-Final-Report,https://www.augustaga.gov/DocumentCenter/View/12833/ARTS-ITS-Strategic-Plan-2018,https://www.augustaga.gov/agendacenter,33.4735,-82.0105,30901
Georgia,METRA Transit System (Columbus),Transit Agency,https://www.columbusga.gov/finance/purchasing,N/A,https://www.columbusga.gov/metra/,https://www.columbusga.gov/metra/Portals/0/METRA%20TDP%20Final%20Report.pdf,https://www.columbusga.gov/metra/Portals/0/ITS%20Strategic%20Plan%20Final%20Report%202018.pdf,https://www.columbusga.gov/council/Agendas-Minutes,32.461,-84.9877,31901
Georgia,Macon-Bibb County Transit Authority (MTA),Transit Agency,https://www.maconbibb.us/procurement/,N/A,https://www.mta-mac.com/about-mta/,https://www.mta-mac.com/wp-content/uploads/2022/07/MTA-TDP-Update-2022-Final-Report-for-Public-Comment.pdf,https://www.maconbibb.us/mpo/wp-content/uploads/sites/23/2019/07/ITS-Plan-Final-Report-2019.pdf,https://www.mta-mac.com/about-mta/mta-board/,32.8407,-83.6324,31201
Georgia,Georgia Ports Authority (GPA),Port Authority,https://gaports.com/departments/purchasing/,N/A,https://gaports.com/about/,https://gaports.com/wp-content/uploads/2023/02/GPA_2022_Annual-Report_FINAL_web.pdf,N/A,https://gaports.com/about/board-of-directors/meetings/,32.0809,-81.0912,31401
Georgia,Georgia Procurement Registry,State-level Portal,https://fscm.teamworks.georgia.gov/psc/supp/SUPPLIER/ERP/c/SCP_PUBLIC_MENU_FL.SCP_PUB_BID_CMP_FL.GBL,N/A,N/A,N/A,N/A,N/A,N/A,,
Georgia,GDOT Doing Business,State DOT,http://www.dot.ga.gov/doing-business,N/A,http://www.dot.ga.gov/IS/MPO,http://www.dot.ga.gov/IS/STIP,https://www.gdot.ga.gov/PartnerSmart/TransportationOptions/ITS/Pages/Architecture.aspx,https://www.dot.ga.gov/GDOT/Pages/Board.aspx,33.749,-84.388,30308
Kentucky,Lincoln Trail ADD,PDD,https://ltadd.org/news/rfp-rfq-opportunities/,Yes,https://ltadd.org/planning/transportation/,https://ltadd.org/planning/transportation/,https://transportation.ky.gov/Planning/Documents/KYStatewideITSArchitectureFinalReport.pdf,https://ltadd.org/about/board-of-directors/board-meetings/,37.8393,-85.7005,42701
Kentucky,KIPDA (Louisville),PDD,https://www.kipda.org/about/rfps-rfqs/,Yes,https://www.kipda.org/planning/transportation-planning/,https://www.kipda.org/planning/tip/,https://www.kipda.org/wp-content/uploads/2022/07/KIPDA-ITS-Architecture-Update-Final-Report_2022.pdf,https://www.kipda.org/about/board-of-directors/board-meetings/,38.2527,-85.7585,40202
Kentucky,Gateway ADD,PDD,https://www.gwadd.org/rfps-public-comment,No,https://www.gwadd.org/transportation,https://www.gwadd.org/transportation,https://transportation.ky.gov/Planning/Documents/KYStatewideITSArchitectureFinalReport.pdf,https://www.gwadd.org/board-of-directors,38.1834,-83.7335,40351
Kentucky,FIVCO ADD,PDD,https://fivco.org/about-fivco/request-for-proposal/,No,https://fivco.org/transportation,https://kyova.org/transportation-improvement-program-tip/,https://kyova.org/wp-content/uploads/2017/04/KYOVA-ITS-Plan-Final-Report-1.pdf,https://fivco.org/about-fivco/board-of-directors/,38.4784,-82.639,41101
Kentucky,Barren River ADD,PDD,https://www.bradd.org/rfp-request,Yes,https://www.warrenpc.org/mpo/,https://www.warrenpc.org/mpo/tip/,https://www.warrenpc.org/mpo/wp-content/uploads/2018/02/ITS-Final-Report.pdf,https://www.bradd.org/board-meetings,36.9945,-86.4436,42101
Kentucky,Green River ADD,PDD,https://www.gradd.com/bids-rfps,Yes,https://www.gradd.com/transportation/,https://www.gradd.com/transportation-improvement-plan/,https://www.gradd.com/wp-content/uploads/2023/04/GRADD-ITS-Plan-2018-Update-Final.pdf,https://www.gradd.com/board-of-directors,37.7747,-87.1136,42301
Kentucky,Purchase ADD,PDD,https://www.purchaseadd.org/bids,Yes,https://www.purchaseadd.org/transportation,https://www.purchaseadd.org/transportation-improvement-program,https://www.purchaseadd.org/wp-content/uploads/2018/01/PADD-ITS-Plan-Final-Report.pdf,https://www.purchaseadd.org/board-meetings,36.8617,-88.6317,42066
Kentucky,KYOVA MPO,MPO,https://kyova.org/about-us/procurement/,N/A,https://kyova.org/transportation-planning/,https://kyova.org/transportation-improvement-program-tip/,https://kyova.org/wp-content/uploads/2017/04/KYOVA-ITS-Plan-Final-Report-1.pdf,https://kyova.org/about-us/meetings/,38.4192,-82.4452,25701
Kentucky,TARC (Louisville),Transit Agency,https://www.ridetarc.org/about-tarc/procurement/,N/A,https://www.ridetarc.org/about-us/reports-and-documents/,https://www.ridetarc.org/wp-content/uploads/2024/02/TARC-Next-Final-Report.pdf,https://www.kipda.org/wp-content/uploads/2022/07/KIPDA-ITS-Architecture-Update-Final-Report_2022.pdf,https://www.ridetarc.org/about-us/board-of-directors/,38.2527,-85.7585,40203
Kentucky,Lextran (Lexington),Transit Agency,https://lextran.com/work-with-us/procurement/,N/A,https://lextran.com/work-with-us/planning/,https://lextran.com/download/lextran-transit-development-plan-2022-2027/?wpdmdl=12595,https://lexareampo.org/wp-content/uploads/2019/07/ITS-Master-Plan-Final-Report-2019.pdf,https://lextran.com/about-us/board-of-directors/meetings/,38.0406,-84.5037,40508
Kentucky,TANK (Northern KY),Transit Agency,https://www.tankbus.org/about-tank/procurement,N/A,https://www.tankbus.org/about/plans-and-reports/,https://www.tankbus.org/media/2008/tank-okifreight-finalreport-2019-09-17-with-appendices.pdf,https://www.oki.org/wp-content/uploads/2023/11/OKI-ITS-Architecture-Final-Report-2023.pdf,https://www.tankbus.org/about/board-of-directors/meetings/,39.0837,-84.512,41011
Kentucky,GO BG Transit,Transit Agency,https://www.bgky.org/bids/,N/A,https://www.bgky.org/transit/plans,https://www.bgky.org/files/2f3c3a11-54b9-4702-861c-ac55012356c1.pdf,https://www.warrenpc.org/mpo/wp-content/uploads/2018/02/ITS-Final-Report.pdf,https://www.bgky.org/meetings,36.9945,-86.4436,42101
Kentucky,Owensboro Transit System,Transit Agency,https://owensboro.org/departments/purchasing/index.php,N/A,https://www.owensboro.org/departments/transit/index.php,https://www.owensboro.org/sites/default/files/uploads/departments/transit/OTS%20TDP%202023-2027_Final.pdf,https://www.gradd.com/wp-content/uploads/2023/04/GRADD-ITS-Plan-2018-Update-Final.pdf,https://owensboro.org/meetings,37.7747,-87.1136,42301
Kentucky,Kentucky eProcurement VSS,State-level Portal,https://emars.ky.gov/online/vss/AltSelfService,N/A,N/A,N/A,N/A,N/A,N/A,,
Kentucky,KYTC Professional Services,State DOT,https://transportation.ky.gov/ProfessionalServices/,N/A,https://transportation.ky.gov/Planning/,https://transportation.ky.gov/Planning/Pages/Statewide-Transportation-Improvement-Program-(STIP).aspx,https://transportation.ky.gov/Planning/Documents/KYStatewideITSArchitectureFinalReport.pdf,https://transportation.ky.gov/Pages/Meetings.aspx,38.1867,-84.8754,40622
Louisiana,Regional Planning Commission (New Orleans),PDD,https://www.norpc.org/work-with-us/rfp/,Yes,https://www.norpc.org/transportation/,https://tip.norpc.org/,https://www.norpc.org/wp-content/uploads/2023/07/New-Orleans-Regional-ITS-Architecture-Final-Report.pdf,https://www.norpc.org/about-us/meetings-calendar/,29.9511,-90.0715,70112
Louisiana,Capital Region Planning Commission,PDD,https://crpcla.org/doing-business-with-the-crpc/,Yes,https://crpcla.org/transportation,https://crpcla.org/transportation-improvement-program,https://crpcla.org/wp-content/uploads/2023/08/Baton-Rouge-Regional-ITS-Architecture-Update-Final-Report.pdf,https://crpcla.org/meetings,30.4515,-91.1871,70802
Louisiana,South Central PDD,PDD,https://scpdc.org/scpdc-services/procurement/,Yes,https://scpdc.org/transportation/,https://scpdc.org/tip/,https://scpdc.org/wp-content/uploads/2023/07/HTMPO-ITS-Architecture-Final-Report-2023.pdf,https://scpdc.org/meetings/,29.5958,-90.7196,70359
Louisiana,Acadiana Planning Commission,PDD,https://planacadiana.org/procurement,Yes,https://planacadiana.org/transportation,https://planacadiana.org/transportation-improvement-program,https://planacadiana.org/wp-content/uploads/2023/07/Lafayette-MPO-ITS-Architecture-Update-Final-Report.pdf,https://planacadiana.org/meetings,30.2241,-92.0198,70501
Louisiana,Imperial Calcasieu RPDD,PDD,https://www.imcal.org/rfp-opportunities,Yes,https://www.imcal.org/transportation,https://www.imcal.org/transportation-improvement-program,https://www.imcal.org/wp-content/uploads/2023/07/IMCAL-ITS-Architecture-Update-Final-Report.pdf,https://www.imcal.org/meetings,30.2266,-93.2174,70601
Louisiana,Kisatchie-Delta RPDD,PDD,https://www.kdelta.org/vendor-interest-opportunities.html,Yes,https://www.kdelta.org/transportation,https://www.kdelta.org/transportation-improvement-program,https://www.kdelta.org/uploads/1/3/8/5/138595919/rapt-its-architecture-final-report-2023.pdf,https://www.kdelta.org/board-of-directors.html,31.3113,-92.4451,71301
Louisiana,Coordinating & Development Corporation,PDD,https://www.cdconline.org/bids-rfps,Yes,https://www.nlcog.org/transportation,https://www.nlcog.org/tip,https://www.nlcog.org/wp-content/uploads/2023/07/Shreveport-Regional-ITS-Architecture-Final-Report.pdf,https://www.cdconline.org/meetings,32.5252,-93.7502,71101
Louisiana,North Delta RPDD,PDD,https://northdelta.org/requests-for-proposals/,Yes,https://northdelta.org/transportation,https://northdelta.org/transportation-improvement-program-tip,https://northdelta.org/wp-content/uploads/2023/07/Monroe-Regional-ITS-Architecture-Final-Report.pdf,https://northdelta.org/meetings,32.5093,-92.1193,71201
Louisiana,New Orleans RTA,Transit Agency,https://www.norta.com/business-with-us,N/A,https://www.norta.com/about-us/reports-publications,https://www.norta.com/media/2592/2023-new-links-network-plan.pdf,https://www.norpc.org/wp-content/uploads/2023/07/New-Orleans-Regional-ITS-Architecture-Final-Report.pdf,https://www.norta.com/about-us/board-of-commissioners/meetings,29.9511,-90.0715,70112
Louisiana,Capital Area Transit System (CATS),Transit Agency,https://www.brcats.com/page/procurement,N/A,https://www.brcats.com/page/planning-and-scheduling,https://www.brcats.com/media/2051/cats-strategic-plan-2020-2022.pdf,https://crpcla.org/wp-content/uploads/2023/08/Baton-Rouge-Regional-ITS-Architecture-Update-Final-Report.pdf,https://www.brcats.com/page/board-of-commissioners,30.4515,-91.1871,70806
Louisiana,SporTran (Shreveport),Transit Agency,https://www.shreveportla.gov/1495/Solicitations,N/A,https://sportran.org/about-sportran/reports-and-plans,https://sportran.org/wp-content/uploads/2023/07/FY-24-28-TDP-Final.pdf,https://www.nlcog.org/wp-content/uploads/2023/07/Shreveport-Regional-ITS-Architecture-Final-Report.pdf,https://www.shreveportla.gov/AgendaCenter,32.5252,-93.7502,71101
Louisiana,Lafayette Transit System (LTS),Transit Agency,https://www.lafayettela.gov/finance-management/purchasing/bid-postings,N/A,https://www.ridelts.com/about/plans-and-publications,https://www.ridelts.com/assets/uploads/lts-files/LTS-TDP-Update-2023-Final-Report-09-29-23.pdf,https://planacadiana.org/wp-content/uploads/2023/07/Lafayette-MPO-ITS-Architecture-Update-Final-Report.pdf,https://www.lafayettela.gov/boards-commissions/meetings-agendas,30.2241,-92.0198,70501
Louisiana,Lake Charles Transit,Transit Agency,https://www.cityoflakecharles.com/department/division.php?structureid=107,N/A,https://www.cityoflakecharles.com/department/division.php?structureid=194,https://www.cityoflakecharles.com/egov/documents/1684959416_61699.pdf,https://www.imcal.org/wp-content/uploads/2023/07/IMCAL-ITS-Architecture-Update-Final-Report.pdf,https://www.cityoflakecharles.com/meetings,30.2266,-93.2174,70601
Louisiana,Port of South Louisiana,Port Authority,https://portsl.com/business-development/procurement/,N/A,https://portsl.com/about-us/,https://portsl.com/wp-content/uploads/2023/05/2022-Annual-Report-FINAL.pdf,N/A,https://portsl.com/about-us/commission/meetings/,30.0527,-90.4735,70068
Louisiana,Port of New Orleans,Port Authority,https://portnola.com/business/procurement,N/A,https://portnola.com/info/reports-publications,https://portnola.com/assets/uploads/general/Port-NOLA-Strategic-Plan-2023.pdf,N/A,https://portnola.com/info/public-meetings,29.9511,-90.0715,70130
Louisiana,Port of Greater Baton Rouge,Port Authority,https://www.portgbr.com/business/bids-rfps,N/A,https://www.portgbr.com/about/publications,https://www.portgbr.com/media/2023/07/2022-Annual-Directory.pdf,N/A,https://www.portgbr.com/about/commissioners/meetings,30.4515,-91.1871,70767
Louisiana,LaPAC State Portal,State-level Portal,https://wwwcfprd.doa.louisiana.gov/osp/lapac/pub/dsp_pub_main.cfm,N/A,N/A,N/A,N/A,N/A,N/A,,
Mississippi,Gulf RPC,COG,https://grpc.com/about-grpc/procurement/,Yes,https://grpc.com/transportation/,https://grpc.com/programs-services/transportation/transportation-improvement-program-tip/,https://grpc.com/wp-content/uploads/2023/12/2023-ITS-Architecture-Final-Report.pdf,https://grpc.com/meetings/,30.3674,-89.0928,39501
Mississippi,Central MS PDD,PDD,https://cmpdd.org/about-us/procurement/,Yes,https://cmpdd.org/transportation/,https://cmpdd.org/transportation/transportation-improvement-program-tip/,https://cmpdd.org/wp-content/uploads/2023/07/Jackson-MPO-ITS-Architecture-Final-Report-2023.pdf,https://cmpdd.org/about-us/board-of-directors/board-meetings-minutes/,32.2988,-90.1848,39201
Mississippi,North Delta PDD,PDD,https://www.ndpdd.com/rfps-bids,Yes,https://memphismpo.org/,https://memphismpo.org/data-documents/transportation-improvement-program,https://memphismpo.org/s/Memphis-MPO-ITS-Architecture-Final-Report-2023.pdf,https://www.ndpdd.com/board-of-directors,34.9543,-90.3354,38606
Mississippi,Hattiesburg MPO,MPO,https://www.hattiesburgms.com/public-notices/,N/A,https://www.hattiesburgms.com/mpo/,https://www.hattiesburgms.com/mpo/tip/,https://www.hattiesburgms.com/wp-content/uploads/2023/07/Hattiesburg-MPO-ITS-Architecture-Final-Report-2023.pdf,https://www.hattiesburgms.com/mpo/meetings/,31.3271,-89.2903,39401
Mississippi,JTRAN (Jackson),Transit Agency,https://www.jacksonms.gov/procurement-contract-administration/,N/A,https://www.jacksonms.gov/jtran/,https://www.jacksonms.gov/wp-content/uploads/2023/03/JTRAN-TDP-FY23-27-Final-Report.pdf,https://cmpdd.org/wp-content/uploads/2023/07/Jackson-MPO-ITS-Architecture-Final-Report-2023.pdf,https://www.jacksonms.gov/government/city-council/agendas-minutes/,32.2988,-90.1848,39201
Mississippi,Coast Transit Authority,Transit Agency,https://coasttransit.com/bids-proposals/,N/A,https://coasttransit.com/about-us/,https://coasttransit.com/wp-content/uploads/2023/10/FY2024-2028-TDP-Update-FINAL.pdf,https://grpc.com/wp-content/uploads/2023/12/2023-ITS-Architecture-Final-Report.pdf,https://coasttransit.com/about-us/board-of-commissioners/,30.3674,-89.0928,39501
Mississippi,Hub City Transit (HCT),Transit Agency,https://www.hattiesburgms.com/business/bids/,N/A,https://www.hattiesburgms.com/transit/,https://www.hattiesburgms.com/wp-content/uploads/2022/09/Hattiesburg-TDP-2022-2026-Final.pdf,https://www.hattiesburgms.com/wp-content/uploads/2023/07/Hattiesburg-MPO-ITS-Architecture-Final-Report-2023.pdf,https://www.hattiesburgms.com/meetings/,31.3271,-89.2903,39401
Mississippi,MS State Port Authority (Gulfport),Port Authority,http://www.shipmspa.com/business-opportunities/bids/,N/A,http://www.shipmspa.com/about-us/overview/,http://www.shipmspa.com/wp-content/uploads/2023/11/MSPA-2023-Strategic-Plan-Update-Final-11.28.23.pdf,N/A,https://www.shipmspa.com/about-us/commissioners/meetings/,30.3674,-89.0928,39501
Mississippi,MS State Procurement Portal,State-level Portal,https://www.ms.gov/dfa/contract_bid_search/Home/Search,N/A,N/A,N/A,N/A,N/A,N/A,,
Mississippi,MDOT Letting Info,State DOT,https://mdot.ms.gov/portal/letting_list,N/A,https://mdot.ms.gov/portal/planning-and-data-portal,https://mdot.ms.gov/portal/stip,https://mdot.ms.gov/portal/its-architecture,https://mdot.ms.gov/portal/transportation-commission,32.2988,-90.1848,39216
North Carolina,Western Piedmont COG,COG,https://www.wpcog.org/rfps,Yes,https://www.wpcog.org/greater-hickory-mpo,https://www.wpcog.org/tip,https://www.wpcog.org/s/ITS-Master-Plan-2018.pdf,https://www.wpcog.org/policy-board-meetings,35.7327,-81.3431,28603
North Carolina,Centralina Regional Council,COG,https://www.centralina.org/about-us/doing-business-with-us/,No,https://www.centralina.org/regional-planning/transportation-planning/,https://www.centralina.org/crtpo/tip/,https://www.crtpo.org/sites/default/files/documents/its_strategic_plan_final_2019.pdf,https://www.centralina.org/about-us/board-of-delegates/agendas-minutes/,35.2271,-80.8431,28202
North Carolina,Piedmont Triad Regional Council,COG,https://www.ptrc.org/services/request-for-proposals,No,https://www.ptrc.org/services/regional-planning/transportation-planning,https://www.ptrc.org/services/regional-planning/transportation-planning/transportation-improvement-program-tip,https://www.hpmpo.org/DocumentCenter/View/1184/HPMPO-ITS-Strategic-Deployment-Plan-2017,https://www.ptrc.org/about-us/board-of-delegates/agendas-minutes,36.0726,-79.792,27284
North Carolina,Central Pines Regional Council,COG,https://www.centralpinesnc.gov/about-us/doing-business-us/rfps-rfqs,Yes,https://www.campo-nc.us/,https://www.campo-nc.us/programs/transportation-improvement-program,https://www.campo-nc.us/sites/default/files/2023-01/CAMPO_ITS_Strategic_Plan_2022.pdf,https://www.centralpinesnc.gov/about-us/board-delegates/agendas-minutes,35.9132,-79.0558,27701
North Carolina,Land-of-Sky Regional Council,COG,https://www.landofsky.org/rfps,Yes,https://www.landofsky.org/transportation,https://frenchbroadrivermpo.org/transportation-improvement-program-tip/,https://frenchbroadrivermpo.org/wp-content/uploads/2019/07/FBRMPO-ITS-Plan-Final-Report.pdf,https://www.landofsky.org/agendas.html,35.5951,-82.5515,28801
North Carolina,Capital Area MPO (CAMPO),MPO,https://www.campo-nc.us/get-involved/rfprfqs,N/A,https://www.campo-nc.us/,https://www.campo-nc.us/programs/transportation-improvement-program,https://www.campo-nc.us/sites/default/files/2023-01/CAMPO_ITS_Strategic_Plan_2022.pdf,https://www.campo-nc.us/get-involved/committees/executive-board/meetings-agendas,35.7796,-78.6382,27601
North Carolina,Charlotte Area Transit (CATS),Transit Agency,https://www.charlottenc.gov/CATS/Get-to-Know-CATS/Doing-Business-with-CATS,N/A,https://www.charlottenc.gov/CATS/Transit-Planning,https://www.charlottenc.gov/CATS/Transit-Planning/Envision-My-Ride,https://www.crtpo.org/sites/default/files/documents/its_strategic_plan_final_2019.pdf,https://www.charlottenc.gov/CATS/About-CATS/MTC,35.2271,-80.8431,28202
North Carolina,GoTriangle,Transit Agency,https://gotriangle.org/business-with-us,N/A,https://gotriangle.org/reports-and-documents,https://gotriangle.org/sites/default/files/publications/reports_and_documents/fy_2024_work_program_final_20230628.pdf,https://www.campo-nc.us/sites/default/files/2023-01/CAMPO_ITS_Strategic_Plan_2022.pdf,https://gotriangle.org/about/board-trustees/meetings,35.994,-78.8986,27701
North Carolina,Piedmont Authority for Regional Transportation (PART),Transit Agency,https://www.partnc.org/about/procurement/,N/A,https://www.partnc.org/about/plans-studies/,https://www.partnc.org/wp-content/uploads/2023/08/PART-TDP-2023-Final-Report.pdf,https://www.hpmpo.org/DocumentCenter/View/1184/HPMPO-ITS-Strategic-Deployment-Plan-2017,https://www.partnc.org/about/board-of-trustees/board-meetings/,36.0726,-79.792,27409
North Carolina,GoRaleigh,Transit Agency,https://raleighnc.gov/doing-business/services/procurement,N/A,https://raleighnc.gov/transit/transit-plans-and-projects,https://raleighnc.gov/transit/services/wake-transit-plan,https://www.campo-nc.us/sites/default/files/2023-01/CAMPO_ITS_Strategic_Plan_2022.pdf,https://raleighnc.gov/government/board-and-commissions/raleigh-transit-authority,35.7796,-78.6382,27601
North Carolina,Greensboro Transit Agency (GTA),Transit Agency,https://www.greensboro-nc.gov/departments/financial-administrative-services/administrative-services/procurement-services,N/A,https://www.greensboro-nc.gov/departments/transportation/gdot-divisions/planning,https://www.greensboro-nc.gov/home/showpublisheddocument/53916/638116542171200000,https://www.greensboro-nc.gov/home/showdocument?id=40274,https://www.greensboro-nc.gov/government/boards-commissions/greensboro-transit-agency-advisory-commission,36.0726,-79.792,27401
North Carolina,GoDurham,Transit Agency,https://www.durhamnc.gov/Bids.aspx,N/A,https://godurhamtransit.org/learn-more/plans-and-projects,https://godurhamtransit.org/sites/default/files/2023-09/durham-county-transit-plan-2023-update-final-report.pdf,https://www.dchcmpo.org/sites/default/files/2023-01/DCHC-MPO-ITS-Strategic-Plan-2022-Final-Report.pdf,https://godurhamtransit.org/learn-more/board-of-trustees,35.994,-78.8986,27701
North Carolina,Winston-Salem Transit Authority (WSTA),Transit Agency,https://www.cityofws.org/163/Purchasing,N/A,https://www.wsmpo.org/,https://www.wsmpo.org/DocumentCenter/View/11546/2024-2033-WSTA-TIP-Final-PDF,https://www.wsmpo.org/DocumentCenter/View/142/ITS-Master-Plan-PDF,https://www.cityofws.org/479/Winston-Salem-Transit-Authority,36.0999,-80.2442,27101
North Carolina,NC State Ports Authority,Port Authority,https://ncports.com/business/procurement/,N/A,https://ncports.com/about/publications/,https://ncports.com/wp-content/uploads/2023/11/NC-Ports-2023-Annual-Report-FINAL.pdf,N/A,https://ncports.com/about/board-of-directors/board-meetings/,34.2257,-77.9447,28401
North Carolina,NC eVP Portal,State-level Portal,https://evp.nc.gov/solicitations/,N/A,N/A,N/A,N/A,N/A,N/A,,
North Carolina,NCDOT Business Page,State DOT,https://www.ncdot.gov/business/,N/A,https://www.ncdot.gov/divisions/transportation-planning/Pages/default.aspx,https://www.ncdot.gov/divisions/transportation-planning/stip/Pages/default.aspx,https://connect.ncdot.gov/projects/iio/Pages/ITS-and-Signals-Design.aspx,https://www.ncdot.gov/about-us/board-transportation/meetings/Pages/default.aspx,35.7796,-78.6382,27601
South Carolina,Appalachian COG,COG,https://www.scacog.org/rfp-portal,Yes,https://www.scacog.org/transportation,https://gpats.org/planning-documents/transportation-improvement-program-tip/,https://gpats.org/wp-content/uploads/2023/07/GPATS-ITS-Strategic-Plan-Final-Report.pdf,https://www.scacog.org/agendas-minutes,34.8526,-82.394,29601
South Carolina,Central Midlands COG,COG,https://www.centralmidlands.org/about_us/solicitations.php,Yes,https://www.centralmidlands.org/transportation,https://www.centralmidlands.org/transportation/transportation-improvement-program-tip,https://www.centralmidlands.org/wp-content/uploads/2023/07/COATS-ITS-Plan-Final-Report-2021.pdf,https://www.centralmidlands.org/about_us/board_of_directors/agendas__minutes.php,34.0007,-81.0348,29201
South Carolina,Lower Savannah COG,COG,https://www.lscog.org/procurement-bids,No,https://www.lscog.org/transportation,https://www.lscog.org/arts-mpo,https://www.augustaga.gov/DocumentCenter/View/12833/ARTS-ITS-Strategic-Plan-2018,https://www.lscog.org/board-meetings,33.5971,-81.7254,29802
South Carolina,Santee-Lynches RCOG,COG,https://www.santeelynchescog.org/opportunities/rfps-bids/,Yes,https://www.santeelynchescog.org/transportation/,https://www.sumtersc.gov/suats/tip,https://www.sumtersc.gov/sites/default/files/uploads/Departments/Planning/SUATS/its-plan-final-2019.pdf,https://www.santeelynchescog.org/about-us/board-of-directors/agendas-minutes/,33.9204,-80.3415,29150
South Carolina,BCDCOG (Charleston),COG,https://bcdcog.com/procurement/,Yes,https://bcdcog.com/transportation-planning/,https://bcdcog.com/tip/,https://bcdcog.com/wp-content/uploads/2023/07/CHATS-ITS-Master-Plan-Final-Report-2021.pdf,https://bcdcog.com/meetings/,32.7765,-79.9311,29405
South Carolina,Waccamaw RCOG,COG,https://www.wrcog.org/about_wrcog/solicitations.php,Yes,https://www.wrcog.org/transportation,https://www.wrcog.org/transportation/transportation-improvement-program-tip,https://www.wrcog.org/wp-content/uploads/2023/07/GSATS-ITS-Plan-Final-Report-2021.pdf,https://www.wrcog.org/about_wrcog/agendas_minutes.php,33.6891,-78.8867,29440
South Carolina,Pee Dee RCOG,COG,https://www.peedeecog.org/rfps-and-bids,Yes,https://www.peedeecog.org/transportation,https://www.peedeecog.org/transportation/transportation-improvement-program-tip,https://www.peedeecog.org/wp-content/uploads/2023/07/FLATS-ITS-Plan-Final-Report-2021.pdf,https://www.peedeecog.org/about/board-of-directors/board-meetings/,34.1954,-79.7625,29502
South Carolina,Lowcountry COG,COG,https://www.lowcountrycog.org/solicitations/,Yes,https://www.lowcountrycog.org/transportation-home,https://www.lowcountrycog.org/tip,https://www.lowcountrycog.org/wp-content/uploads/2023/07/LATS-ITS-Plan-Final-Report-2021.pdf,https://www.lowcountrycog.org/council-meetings/,32.4357,-80.6782,29945
South Carolina,Catawba RCOG,COG,http://catawbacog.org/procurement/,Yes,http://www.rfats.org/,http://www.rfats.org/plans-programs/tip/,http://www.rfats.org/wp-content/uploads/2023/07/RFATS-ITS-Plan-Final-Report-2021.pdf,http://catawbacog.org/board-of-directors/,34.9248,-80.9987,29731
South Carolina,The COMET (Columbia),Transit Agency,https://catchthecomet.org/about/procurement/,N/A,https://catchthecomet.org/about/reports/,https://catchthecomet.org/wp-content/uploads/2023/06/TDP-FY24-28-Final-Report.pdf,https://www.centralmidlands.org/wp-content/uploads/2023/07/COATS-ITS-Plan-Final-Report-2021.pdf,https://catchthecomet.org/about/board-info/,34.0007,-81.0348,29201
South Carolina,Coast RTA (Myrtle Beach),Transit Agency,https://www.coastrta.com/about-us/procurement.aspx,N/A,https://www.coastrta.com/about-us/reports-publications.aspx,https://www.coastrta.com/assets/1/7/2023_TDP_Annual_Update.pdf,https://www.wrcog.org/wp-content/uploads/2023/07/GSATS-ITS-Plan-Final-Report-2021.pdf,https://www.coastrta.com/about-us/board-of-directors.aspx,33.6891,-78.8867,29526
South Carolina,My Ride Rock Hill,Transit Agency,https://myriderockhill.com/bid-opportunities/,N/A,https://www.cityofrockhill.com/government/departments/transportation-planning,https://www.rfats.org/wp-content/uploads/2023-01-11-Final-Draft-Report.pdf,http://www.rfats.org/wp-content/uploads/2023/07/RFATS-ITS-Plan-Final-Report-2021.pdf,https://www.cityofrockhill.com/government/city-council/agendas-minutes,34.9248,-80.9987,29730
South Carolina,SC Ports Authority,Port Authority,https://scspa.com/resources/legal/procurement/,N/A,https://scspa.com/news/publications/,https://scspa.com/wp-content/uploads/2023/11/SC-Ports-Annual-Report-2023-web.pdf,N/A,https://scspa.com/about/board-of-directors/meetings/,32.7765,-79.9311,29464
South Carolina,SC Business Opportunities (SCBO),State-level Portal,https://webprod.cio.sc.gov/SCSolicitationWeb/contractSearch.do,N/A,N/A,N/A,N/A,N/A,N/A,,
South Carolina,SCDOT Procurement,State DOT,https://www.scdot.org/business/procurement.html,N/A,https://www.scdot.org/business/planning.aspx,https://www.scdot.org/business/planning-stip.aspx,https://www.scdot.org/business/pdf/its/Statewide_ITS_Architecture_Final_Report.pdf,https://www.scdot.org/business/commission-meetings.aspx,34.0007,-81.0348,29201
Tennessee,Greater Nashville Regional Council,COG,https://www.gnrc.org/doing_business_with_gnrc,Yes,https://www.gnrc.org/transportation,https://www.gnrc.org/transportation_improvement_program,https://www.nashvillempo.org/wp-content/uploads/2017/09/Nashville-MPO-ITS-Architecture-Final-Report-2017.pdf,https://www.gnrc.org/agendas-minutes/,36.1627,-86.7816,37219
Tennessee,Southeast Tennessee DD,PDD,https://www.sedev.org/bids-rfps,Yes,https://www.sedev.org/transportation,https://chcrpa.org/transportation-improvement-program-tip/,https://chcrpa.org/wp-content/uploads/2023/07/Chattanooga-Hamilton-County-Regional-ITS-Architecture-Final-Report-2023.pdf,https://www.sedev.org/agendas-minutes,35.0456,-85.3097,37401
Tennessee,Memphis MPO,MPO,https://memphismpo.org/news-events/contracting,N/A,https://memphismpo.org/,https://memphismpo.org/data-documents/transportation-improvement-program,https://memphismpo.org/s/Memphis-MPO-ITS-Architecture-Final-Report-2023.pdf,https://memphismpo.org/get-involved/committees-and-meetings,35.1495,-90.049,38103
Tennessee,WeGo Public Transit (Nashville),Transit Agency,https://www.wegotransit.com/about/business/procurement/,N/A,https://www.wegotransit.com/about/reports-and-stats/,https://www.wegotransit.com/media/2023/06/FY24-28-TDP-FINAL-DRAFT.pdf,https://www.nashvillempo.org/wp-content/uploads/2017/09/Nashville-MPO-ITS-Architecture-Final-Report-2017.pdf,https://www.wegotransit.com/about/board-of-directors/meetings/,36.1627,-86.7816,37203
Tennessee,MATA (Memphis),Transit Agency,https://www.matatransit.com/about/procurement/,N/A,https://www.matatransit.com/about/plans-and-reports/,https://www.matatransit.com/wp-content/uploads/2024/01/MATA-TDP-2024-2028-Final-Report.pdf,https://memphismpo.org/s/Memphis-MPO-ITS-Architecture-Final-Report-2023.pdf,https://www.matatransit.com/about/board-of-commissioners/meetings/,35.1495,-90.049,38103
Tennessee,CARTA (Chattanooga),Transit Agency,https://www.gocarta.org/about-carta/procurement/,N/A,https://www.gocarta.org/about/reports-and-publications/,https://www.gocarta.org/wp-content/uploads/2023/09/CARTA-TDP-2023-Final-Report.pdf,https://chcrpa.org/wp-content/uploads/2023/07/Chattanooga-Hamilton-County-Regional-ITS-Architecture-Final-Report-2023.pdf,https://www.gocarta.org/about/board-of-directors/meetings/,35.0456,-85.3097,37402
Tennessee,Knoxville Area Transit (KAT),Transit Agency,https://knoxvilletn.gov/government/city_departments_offices/purchasing,N/A,https://www.knoxvilletn.gov/government/city_departments_offices/transit/about_kat/reports_and_documents,https://www.knoxvilletn.gov/files/assets/public/v/1/transit/documents-and-reports/kat-tdp-2022-2026-final-report.pdf,https://knoxtpo.org/wp-content/uploads/2023/07/Knoxville-Regional-TPO-ITS-Architecture-Final-Report-2023.pdf,https://www.knoxvilletn.gov/government/boards_commissions/knoxville_transportation_authority,35.9606,-83.9207,37917
Tennessee,Clarksville Transit System (CTS),Transit Agency,https://www.clarksvilletn.gov/173/Purchasing,N/A,https://www.cityofclarksville.com/201/Transit-System-CTS,https://www.cityofclarksville.com/DocumentCenter/View/1858/Transit-Development-Plan-PDF,https://cmcrpc.com/wp-content/uploads/2023/07/Clarksville-MPO-ITS-Architecture-Final-Report-2023.pdf,https://www.cityofclarksville.com/279/City-Council-Meetings,36.5297,-87.3595,37040
Tennessee,Port of Memphis,Port Authority,https://www.portofmemphis.com/bids-rfps,N/A,N/A,N/A,N/A,https://www.portofmemphis.com/about-us/board-meetings,35.1495,-90.049,38106
Tennessee,TN Central Procurement Office,State-level Portal,https://www.tn.gov/generalservices/procurement/central-procurement-office--cpo-/go-dbe/current-procurement-opportunities.html,N/A,N/A,N/A,N/A,N/A,N/A,,
Tennessee,TDOT Procurement,State DOT,https://www.tn.gov/tdot/procurement.html,N/A,https://www.tn.gov/tdot/long-range-planning.html,https://www.tn.gov/tdot/program-development-and-administration-division/program-development-and-administration-state-transportation-improvement-program--stip-.html,https://www.tn.gov/tdot/multimodal-transportation-resources/intelligent-transportation-systems--its--office/its-documents/its-architecture.html,https://www.tn.gov/tdot/about-tdot/transportation-commission.html,36.1627,-86.7816,37243
Texas,Alamo Area COG,COG,https://www.aacog.com/169/Procurement-Bids,Yes,https://www.alamoareampo.org/,https://www.alamoareampo.org/PlansPrograms/TIP.aspx,https://www.alamoareampo.org/Portals/0/Docs/Plans/ITS/AAMPO_ITS_Plan_2018.pdf,https://www.aacog.com/111/Board-of-Directors,29.4241,-98.4936,78205
Texas,Ark-Tex COG,COG,https://atcog.org/procurement/,Yes,http://www.texarkanampo.org/,http://www.texarkanampo.org/transportation-improvement-program.html,http://www.texarkanampo.org/uploads/1/3/8/2/13828130/tuts_its_plan_final_report_12.18.18.pdf,https://atcog.org/about-us/board-of-directors/,33.4251,-94.0477,75501
Texas,Brazos Valley COG,COG,https://procurement.opengov.com/portal/brazos-valley-tx,Yes,https://www.bvcog.org/programs/regional-planning-and-services/transportation,https://www.bvcsmpo.org/tip,https://www.bvcsmpo.org/files/3315/2916/8718/BCSMPO_ITS_Strategic_Plan_Final_Report.pdf,https://www.bvcog.org/about-us/board-of-directors/board-meetings/,30.628,-96.3344,77803
Texas,Capital Area COG,COG,https://www.capcog.org/about/do-business-with-us/,Yes,https://www.campotexas.org/,https://www.campotexas.org/plans-programs/tip/,https://www.campotexas.org/wp-content/uploads/2018/10/CAMPO-2018-ITS-Plan-Final-Report.pdf,https://www.capcog.org/about/who-we-are/executive-committee/,30.2672,-97.7431,78701
Texas,Central Texas COG,COG,https://www.ctcog.org/grants-vendors,Yes,https://www.ktmpo.org/,https://www.ktmpo.org/transportation-improvement-program-tip/,https://www.ktmpo.org/wp-content/uploads/2018/10/KTMPO_ITS_Strategic_Plan_Final_Report.pdf,https://www.ctcog.org/executive-committee/,31.0982,-97.7211,76513
Texas,Coastal Bend COG,COG,https://coastalbendcog.org/bids/,Yes,https://www.corpuschristi-mpo.org/,https://www.corpuschristi-mpo.org/tip,https://www.corpuschristi-mpo.org/home/showpublisheddocument/1032/636805126135270000,https://coastalbendcog.org/meetings/,27.8006,-97.3964,78401
Texas,Concho Valley COG,COG,https://www.cvcog.org/bids-rfps,Yes,https://www.sanangelompo.org/,https://www.sanangelompo.org/transportation-improvement-program,https://www.sanangelompo.org/vertical/sites/%7B1E64621A-1655-4424-9B67-2A3805B55A25%7D/uploads/SA_MPO_ITS_Report_Final.pdf,https://www.cvcog.org/meetings,31.4638,-100.437,76903
Texas,Deep East Texas COG,COG,https://www.detcog.gov/procurement-opportunities,No,https://www.detcog.gov/regional-planning/transportation,N/A,https://ftp.txdot.gov/pub/txdot/its/architecture/2022/DETCOG.pdf,https://www.detcog.gov/meetings,31.3369,-94.7291,75901
Texas,East Texas COG,COG,https://www.etcog.org/bids,Yes,https://www.etcog.org/transportation,https://www.longviewmpo.org/220/Transportation-Improvement-Program-TIP,https://ftp.txdot.gov/pub/txdot/its/architecture/2022/ETCOG.pdf,https://www.etcog.org/meetings,32.3513,-94.7977,75662
Texas,Golden Crescent RPC,COG,https://www.gcrpc.org/doing-business-with-the-gcrpc/,Yes,https://www.victoriampo.org/,https://www.victoriampo.org/transportation-improvement-program-tip,https://www.victoriampo.org/_files/ugd/8f3544_93717208d15e42a98319f03222e86b24.pdf,https://www.gcrpc.org/meetings/,28.805,-97.0036,77901
Texas,Heart of Texas COG,COG,https://www.hotcog.org/rfps-and-bids,Yes,https://www.waco-texas.com/mpo/,https://www.waco-texas.com/mpo/transportation-improvement-program.asp,https://www.waco-texas.com/mpo/pdf/plans/ITS-Architecture-Update-2018.pdf,https://www.hotcog.org/meetings,31.5493,-97.1467,76701
Texas,Houston-Galveston Area Council,COG,https://www.h-gac.com/procurement,Yes,https://www.h-gac.com/transportation-planning,https://www.h-gac.com/transportation-improvement-program,https://www.h-gac.com/gulf-coast-regional-its-architecture,https://www.h-gac.com/board-of-directors/meetings,29.7604,-95.3698,77002
Texas,Lower Rio Grande Valley DC,COG,https://www.lrgvdc.org/bids.html,Yes,https://www.rgvmpo.org/,https://www.rgvmpo.org/transportation-improvement-program,https://www.rgvmpo.org/_uploaded_files/its_docs/2018_rgv_its_architecture_final_report.pdf,https://www.lrgvdc.org/meetings.html,26.2034,-97.6836,78596
Texas,Middle Rio Grande DC,COG,http://www.mrgdc.org/bids-rfps,Yes,http://www.mrgdc.org/transportation-planning,N/A,https://ftp.txdot.gov/pub/txdot/its/architecture/2022/MRGDC.pdf,http://www.mrgdc.org/agendas-minutes,29.3613,-100.8962,78840
Texas,Nortex RPC,COG,https://www.nortexrpc.org/rfps-and-bids/,Yes,https://www.wfmpo.org/,https://www.wfmpo.org/transportation-improvement-program,https://www.wfmpo.org/_files/ugd/7d2ddb_b810486c726b47c0b991845119859b92.pdf,https://www.nortexrpc.org/meetings/,33.9137,-98.4934,76301
Texas,North Central Texas COG,COG,https://www.nctcog.org/agency-administration/purchasing,Yes,https://www.nctcog.org/trans/,https://www.nctcog.org/trans/funds/tip,https://www.nctcog.org/trans/plan/its/regional-its-architecture,https://www.nctcog.org/agency-administration/about/committees/executive-board/meetings,32.7767,-96.797,76011
Texas,Panhandle RPC,COG,https://www.theprpc.org/bids.php,Yes,https://www.amarillompo.org/,https://www.amarillompo.org/plans-and-programs/transportation-improvement-program,https://www.amarillompo.org/_files/ugd/52504b_40d10b745483474384e56598c0a87a17.pdf,https://www.theprpc.org/meetings.php,35.222,-101.8313,79101
Texas,Permian Basin RPC,COG,https://www.pbrpc.org/departments/regional-services/economic-development/bids-rfps/,Yes,https://www.permianbasinmpo.com/,https://www.permianbasinmpo.com/transportation-improvement-program,https://www.permianbasinmpo.com/assets/uploads/docs/2018_ITS_Architecture_Final_Report.pdf,https://www.pbrpc.org/meetings/,31.8457,-102.3676,79702
Texas,Rio Grande COG,COG,https://www.riocog.org/procurement,Yes,https://www.elpasompo.org/,https://www.elpasompo.org/TIP,https://www.elpasompo.org/uploads/2/3/9/1/23912128/el_paso_mpo_its_architecture_final_report_2018.pdf,https://www.riocog.org/agendas-minutes,31.7619,-106.485,79901
Texas,South East Texas RPC,COG,https://setrpc.org/procurement/,Yes,https://www.setrpc.org/transportation-2/,https://www.setrpc.org/transportation-improvement-program/,https://setrpc.org/wp-content/uploads/2018/10/JHTS-ITS-Architecture-Update-Final-Report.pdf,https://setrpc.org/meetings/,30.0866,-94.1266,77701
Texas,South Plains Association of Governments,COG,https://www.spag.org/bids-rfps,Yes,https://www.lubbockmpo.org/,https://www.lubbockmpo.org/transportation-improvement-program,https://www.lubbockmpo.org/_files/ugd/587184_0083a2d5e381448ebf5c357421869e5d.pdf,https://www.spag.org/board-meetings,33.5779,-101.8552,79401
Texas,South Texas DC,COG,https://www.stdc.cog.tx.us/procurement/,Yes,https://www.laredompo.org/,https://www.laredompo.org/tip,https://www.laredompo.org/wp-content/uploads/2018/10/Laredo-ITS-Architecture-Final-Report.pdf,https://www.stdc.cog.tx.us/board-of-directors/meetings/,27.5064,-99.5075,78040
Texas,Texoma COG,COG,https://www.tcog.com/procurement-bids-rfps,Yes,https://www.tcog.com/transportation/mpo/,https://www.tcog.com/transportation/mpo/tip/,https://www.tcog.com/wp-content/uploads/2018/10/Grayson-County-MPO-ITS-Plan-Final-Report.pdf,https://www.tcog.com/governing-body/meetings/,33.6359,-96.6089,75090
Texas,West Central Texas COG,COG,https://www.wctcog.org/bids-rfps,Yes,https://www.abilenempo.org/,https://www.abilenempo.org/transportation-improvement-program,https://www.abilenempo.org/_files/ugd/794353_6982362b804543d395a1213038a8e10d.pdf,https://www.wctcog.org/meetings,32.4487,-99.7331,79604
Texas,El Paso MPO,MPO,https://www.elpasompo.org/BidsRFPs,N/A,https://www.elpasompo.org/,https://www.elpasompo.org/TIP,https://www.elpasompo.org/uploads/2/3/9/1/23912128/el_paso_mpo_its_architecture_final_report_2018.pdf,https://www.elpasompo.org/meetings,31.7619,-106.485,79901
Texas,Capital Metro (Austin),Transit Agency,https://www.capmetro.org/vendors,N/A,https://www.capmetro.org/about-us/reports-and-publications,https://www.capmetro.org/docs/default-source/business-docs/finance-and-reports/project-connect-investment-plan.pdf,https://www.campotexas.org/wp-content/uploads/2018/10/CAMPO-2018-ITS-Plan-Final-Report.pdf,https://www.capmetro.org/board-meetings,30.2672,-97.7431,78704
Texas,Dallas Area Rapid Transit (DART),Transit Agency,https://www.dart.org/about/doing-business/procurement,N/A,https://www.dart.org/about/dart-projects,https://www.dart.org/about/publications,https://www.nctcog.org/trans/plan/its/regional-its-architecture,https://www.dart.org/about/board/board-meetings,32.7767,-96.797,75201
Texas,Trinity Metro (Fort Worth),Transit Agency,https://ridetrinitymetro.org/business-center/procurement/,N/A,https://ridetrinitymetro.org/about-us/reports-and-publications/,https://ridetrinitymetro.org/wp-content/uploads/2024/02/A-Better-Connection-Final-Plan-2.28.24.pdf,https://www.nctcog.org/trans/plan/its/regional-its-architecture,https://ridetrinitymetro.org/about-us/board-of-directors/board-meetings/,32.7555,-97.3308,76102
Texas,METRO (Houston),Transit Agency,https://www.ridemetro.org/about/business-to-business/procurement-opportunities,N/A,https://www.ridemetro.org/about/reports-and-publications,https://www.ridemetro.org/about/reports-and-publications/metro-next,https://www.h-gac.com/gulf-coast-regional-its-architecture,https://www.ridemetro.org/about/board-of-directors/board-meetings,29.7604,-95.3698,77002
Texas,VIA (San Antonio),Transit Agency,https://www.viainfo.net/procurement/,N/A,https://www.viainfo.net/about/plans-projects/,https://www.viainfo.net/wp-content/uploads/2023/07/FY2024-2028-Transit-Development-Plan-TDP.pdf,https://www.alamoareampo.org/Portals/0/Docs/Plans/ITS/AAMPO_ITS_Plan_2018.pdf,https://www.viainfo.net/meetings/,29.4241,-98.4936,78205
Texas,Abilene - CityLink,Transit Agency,https://www.abilenetx.gov/Bids.aspx,N/A,https://www.abilenetx.gov/432/CityLink-Abilene,N/A,https://www.abilenempo.org/_files/ugd/794353_6982362b804543d395a1213038a8e10d.pdf,https://www.abilenetx.gov/89/Agendas-Minutes,32.4487,-99.7331,79604
Texas,Amarillo Transit System,Transit Agency,https://www.amarillo.gov/departments/purchasing/bid-opportunities,N/A,https://www.amarillo.gov/departments/public-transit,https://www.amarillo.gov/home/showpublisheddocument/22026/638063198031330000,https://www.amarillompo.org/_files/ugd/52504b_40d10b745483474384e56598c0a87a17.pdf,https://amarillo.novusagenda.com/agendapublic/,35.222,-101.8313,79101
Texas,Arlington On-Demand,Transit Agency,https://www.arlingtontx.gov/city_hall/departments/office_of_business_diversity/procurement_office/bids_and_proposals,N/A,https://www.arlingtontx.gov/city_hall/departments/transportation/public_transportation,https://www.arlingtontx.gov/common/pages/requests/servefile.aspx?FileID=24151,https://www.nctcog.org/trans/plan/its/regional-its-architecture,https://arlingtontx.granicus.com/ViewPublisher.php?view_id=9,32.7357,-97.1081,76010
Texas,Beaumont Transit System,Transit Agency,https://www.beaumonttexas.gov/254/Purchasing,N/A,https://www.beaumonttexas.gov/195/Beaumont-Municipal-Transit,https://beaumont.municipal.codes/Code/SUBPARTB/APXADIV4,https://setrpc.org/wp-content/uploads/2018/10/JHTS-ITS-Architecture-Update-Final-Report.pdf,https://beaumont.municipal.codes/agendas,30.0866,-94.1266,77701
Texas,B Metro (Brownsville),Transit Agency,https://www.brownsvilletx.gov/292/Purchasing-Contract-Management,N/A,https://www.brownsvilletx.gov/559/Transportation,https://www.brownsvilletx.gov/DocumentCenter/View/8568/BTX-UTP-Final-Report,https://www.rgvmpo.org/_uploaded_files/its_docs/2018_rgv_its_architecture_final_report.pdf,https://www.brownsvilletx.gov/AgendaCenter,25.9017,-97.4975,78520
Texas,Brazos Transit District,Transit Agency,https://www.btd.org/procurement/,N/A,https://www.btd.org/about/,https://www.bvcog.org/wp-content/uploads/2022/10/Brazos-Valley-Coordinated-Plan-2022-Final.pdf,https://www.bvcsmpo.org/files/3315/2916/8718/BCSMPO_ITS_Strategic_Plan_Final_Report.pdf,https://www.btd.org/board-of-directors/,30.628,-96.3344,77803
Texas,Corpus Christi RTA,Transit Agency,https://www.ccrta.org/procurement-opportunities/,N/A,https://www.ccrta.org/about-us/plans-and-reports/,https://www.ccrta.org/wp-content/uploads/2023/09/FY-2024-2028-TDP-FINAL-DRAFT.pdf,https://www.corpuschristi-mpo.org/home/showpublisheddocument/1032/636805126135270000,https://www.ccrta.org/about-us/board-of-directors/agendas-minutes-and-videos/,27.8006,-97.3964,78401
Texas,Denton County TA (DCTA),Transit Agency,https://www.dcta.net/procurement,N/A,https://www.dcta.net/about-us/plans-and-reports,https://www.dcta.net/sites/default/files/2023-11/FY2024-2028%20Transit%20Development%20Plan.pdf,https://www.nctcog.org/trans/plan/its/regional-its-architecture,https://www.dcta.net/about-us/board-of-directors/board-meetings,33.2148,-97.1331,75067
Texas,Sun Metro (El Paso),Transit Agency,https://www.elpasotexas.gov/financial-services/purchasing/,N/A,https://www.sunmetro.net/about-us/reports-and-publications,https://www.sunmetro.net/assets/sunmetro/docs/2023-2027-TDP/FY2023-2027-TDP-FINAL-REPORT.pdf,https://www.elpasompo.org/uploads/2/3/9/1/23912128/el_paso_mpo_its_architecture_final_report_2018.pdf,https://www.elpasotexas.gov/meetings/,31.7619,-106.485,79901
Texas,Island Transit (Galveston),Transit Agency,https://www.galvestontx.gov/208/Purchasing,N/A,https://www.galvestontx.gov/256/Island-Transit,https://www.galvestontx.gov/DocumentCenter/View/14022/2022-TDP-Update,https://www.h-gac.com/gulf-coast-regional-its-architecture,https://www.galvestontx.gov/agendacenter,29.3013,-94.7977,77550
Texas,El Metro (Laredo),Transit Agency,https://www.cityoflaredo.com/purchasing/,N/A,https://www.cityoflaredo.com/elmetro/,https://www.cityoflaredo.com/elmetro/pdf/Laredo-TDP-2022-Final-Report.pdf,https://www.laredompo.org/wp-content/uploads/2018/10/Laredo-ITS-Architecture-Final-Report.pdf,https://laredotx.swagit.com/city-council,27.5064,-99.5075,78040
Texas,Longview Transit,Transit Agency,https://www.longviewtexas.gov/bids.aspx,N/A,https://www.longviewtransit.com/about-us,https://www.longviewtransit.com/assets/files/TDP-2022-2026-Final-Report-11.16.22.pdf,https://ftp.txdot.gov/pub/txdot/its/architecture/2022/ETCOG.pdf,https://www.longviewtexas.gov/agendacenter,32.5007,-94.7405,75601
Texas,Citibus (Lubbock),Transit Agency,https://ci.lubbock.tx.us/departments/purchasing-contract-management/bid-opportunities,N/A,https://www.citibus.com/about-us,https://www.citibus.com/uploads/TDP%202022%20Update%20Final%20Report.pdf,https://www.lubbockmpo.org/_files/ugd/587184_0083a2d5e381448ebf5c357421869e5d.pdf,https://www.citibus.com/board-of-directors,33.5779,-101.8552,79401
Texas,Metro McAllen,Transit Agency,https://www.mcallen.net/departments/finance/purchasing-contracting/bids,N/A,https://www.mcallen.net/departments/transit/plans-studies,https://www.mcallen.net/docs/default-source/transit/plans-studies/2022-transit-development-plan.pdf,https://www.rgvmpo.org/_uploaded_files/its_docs/2018_rgv_its_architecture_final_report.pdf,https://www.mcallen.net/departments/government/meetings,26.2034,-98.23,78501
Texas,EZ Rider (Midland-Odessa),Transit Agency,https://www.ez-rider.org/procurement/,N/A,https://www.ez-rider.org/about-us,https://www.permianbasinmpo.com/assets/uploads/docs/TDP_2022_Final_Report.pdf,https://www.permianbasinmpo.com/assets/uploads/docs/2018_ITS_Architecture_Final_Report.pdf,https://www.ez-rider.org/board-of-directors,31.9974,-102.0779,79701
Texas,Port Arthur Transit (PAT),Transit Agency,https://www.portarthurtx.gov/241/Purchasing,N/A,https://www.portarthurtx.gov/208/Port-Arthur-Transit,https://www.portarthurtx.gov/DocumentCenter/View/3440/2022-PAT-TDP-Final-Report,https://setrpc.org/wp-content/uploads/2018/10/JHTS-ITS-Architecture-Update-Final-Report.pdf,https://www.portarthurtx.gov/agendacenter,29.885,-93.9399,77640
Texas,T-Line (Texarkana),Transit Agency,https://tx-texarkana.civicplus.com/bids.aspx,N/A,http://www.texarkanampo.org/transit.html,http://www.texarkanampo.org/uploads/1/3/8/2/13828130/2022_t-line_tdp_final_report.pdf,http://www.texarkanampo.org/uploads/1/3/8/2/13828130/tuts_its_plan_final_report_12.18.18.pdf,https://tx-texarkana.civicplus.com/AgendaCenter,33.4251,-94.0477,75501
Texas,Waco Transit System,Transit Agency,https://www.waco-texas.com/Departments/Purchasing-Services/Bids-and-Proposals,N/A,https://www.waco-texas.com/transit/,https://www.waco-texas.com/transit/pdfs/Waco-TDP-2022-Final-Report.pdf,https://www.waco-texas.com/mpo/pdf/plans/ITS-Architecture-Update-2018.pdf,https://www.waco-texas.com/transit/board.asp,31.5493,-97.1467,76701
Texas,Falls Ride (Wichita Falls),Transit Agency,https://www.wichitafallstx.gov/119/Purchasing,N/A,https://www.wichitafallstx.gov/307/Transit-Falls-Ride,https://www.wichitafallstx.gov/DocumentCenter/View/33716/2022-TDP-Final-Report,https://www.wfmpo.org/_files/ugd/7d2ddb_b810486c726b47c0b991845119859b92.pdf,https://www.wichitafallstx.gov/agendacenter,33.9137,-98.4934,76301
Texas,Port of Beaumont,Port Authority,https://www.portofbeaumont.com/procurement/,N/A,https://www.portofbeaumont.com/about-us/,N/A,N/A,https://www.portofbeaumont.com/about-us/board-meetings/,30.0866,-94.1266,77701
Texas,Port of Corpus Christi,Port Authority,https://pocca.procureware.com/home,N/A,https://www.portofcc.com/about-us/,https://www.portofcc.com/wp-content/uploads/Port-of-Corpus-Christi-2022-Annual-Report.pdf,N/A,https://www.portofcc.com/about-us/leadership/meetings/,27.8006,-97.3964,78401
Texas,Port Houston,Port Authority,https://porthouston.com/business-with-port-houston/procurement/,N/A,https://porthouston.com/about-us/port-houston-reports/,https://porthouston.com/wp-content/uploads/2023/05/Port-Houston-2040-Plan-FINAL.pdf,N/A,https://porthouston.com/about-us/public-meetings/,29.7604,-95.3698,77002
Texas,Port of Brownsville,Port Authority,https://www.portofbrownsville.com/business-with-the-port/procurement/,N/A,https://www.portofbrownsville.com/about/,https://www.portofbrownsville.com/wp-content/uploads/2024/02/2023-Annual-Report-FINAL.pdf,N/A,https://www.portofbrownsville.com/about/board-of-commissioners/meetings/,25.9017,-97.4975,78521
Texas,Calhoun Port Authority,Port Authority,https://www.calhounport.com/doing-business/bids-rfps/,N/A,N/A,N/A,N/A,https://www.calhounport.com/about/board-of-commissioners/meetings/,28.6142,-96.6214,77979
Texas,Port Freeport,Port Authority,https://www.portfreeport.com/procurement-bids/,N/A,https://www.portfreeport.com/about/,https://www.portfreeport.com/wp-content/uploads/2023/02/2022-Annual-Report.pdf,N/A,https://www.portfreeport.com/about/meetings/,28.9547,-95.3594,77541
Texas,Port of Galveston,Port Authority,https://www.portofgalveston.com/departments/procurement/,N/A,https://www.portofgalveston.com/221/Strategic-Plan,https://www.portofgalveston.com/DocumentCenter/View/1154/2040-Strategic-Master-Plan,N/A,https://www.portofgalveston.com/224/Board-of-Trustees-Meetings,29.3013,-94.7977,77550
Texas,Port of Orange,Port Authority,https://portoforange.com/bids-rfps/,N/A,N/A,N/A,N/A,https://portoforange.com/about/board-of-commissioners/meetings/,30.0924,-93.736,77630
Texas,Port of Port Arthur,Port Authority,https://portpa.com/doing-business/bids-rfps/,N/A,N/A,N/A,N/A,https://portpa.com/about-us/board-of-commissioners/meetings/,29.885,-93.9399,77640
Texas,Port of Port Isabel,Port Authority,https://portofportisabel.com/bids-rfps/,N/A,N/A,N/A,N/A,https://portofportisabel.com/about-us/board-of-commissioners/meetings/,26.0734,-97.2061,78578
Texas,Port of Texas City,Port Authority,https://www.portoftexascity.com/procurement/,N/A,N/A,N/A,N/A,https://www.portoftexascity.com/about-us/commissioners-meetings/,29.3838,-94.9027,77590
Texas,TxDOT PEPS,State DOT,https://www.txdot.gov/business/letting-bids/peps.html,N/A,https://www.txdot.gov/inside-txdot/division/transportation-planning.html,https://www.txdot.gov/inside-txdot/division/transportation-planning/stip.html,https://www.txdot.gov/inside-txdot/division/traffic/its-architecture.html,https://www.txdot.gov/about/commission.html,30.2672,-97.7431,78701
New Mexico,Eastern Plains COG,COG,https://www.epcog.org/rfps-bids,No,https://www.epcog.org/rtpo,https://www.epcog.org/_files/ugd/5d3744_4d603a119572449793132d73318f72f0.pdf,https://www.dot.nm.gov/wp-content/uploads/2023/07/NMDOT-Statewide-ITS-Architecture-Final-Report-2023.pdf,https://www.epcog.org/agendas-minutes,34.6075,-103.3644,88101
New Mexico,Mid-Region COG,COG,https://www.mrcog-nm.gov/452/Procurement,Yes,https://www.mrcog-nm.gov/383/Transportation,https://www.mrcog-nm.gov/405/Transportation-Improvement-Program-TIP,https://www.mrcog-nm.gov/DocumentCenter/View/6166/MRMPO-ITS-Strategic-Plan-2022,https://www.mrcog-nm.gov/153/Agendas-Minutes-and-Videos,35.0844,-106.6504,87102
New Mexico,North Central NM EDD,PDD,https://www.ncnmedd.com/procurement,No,https://www.ncnmedd.com/rtpo,https://www.ncnmedd.com/tip,https://www.dot.nm.gov/wp-content/uploads/2023/07/NMDOT-Statewide-ITS-Architecture-Final-Report-2023.pdf,https://www.ncnmedd.com/agendas-minutes,35.687,-105.9378,87501
New Mexico,Northwest NM COG,COG,https://www.nwnmcog.org/procurement,No,https://www.nwnmcog.org/transportation-planning,https://www.nwnmcog.org/tip,https://www.dot.nm.gov/wp-content/uploads/2023/07/NMDOT-Statewide-ITS-Architecture-Final-Report-2023.pdf,https://www.nwnmcog.org/agendas-minutes,35.5228,-108.7439,87301
New Mexico,South Central COG,COG,https://www.sccog-nm.com/procurement,No,https://www.sccog-nm.com/rtpo,https://www.sccog-nm.com/tip,https://www.dot.nm.gov/wp-content/uploads/2023/07/NMDOT-Statewide-ITS-Architecture-Final-Report-2023.pdf,https://www.sccog-nm.com/agendas-minutes,33.0784,-107.257,87901
New Mexico,Southeast NM EDD,PDD,https://www.snmedd.org/procurement,No,https://www.snmedd.org/transportation-planning,https://www.snmedd.org/transportation-improvement-program,https://www.dot.nm.gov/wp-content/uploads/2023/07/NMDOT-Statewide-ITS-Architecture-Final-Report-2023.pdf,https://www.snmedd.org/agendas-minutes,33.3973,-104.523,88201
New Mexico,Southwest NM COG,COG,https://swnmcog.org/procurement/,No,https://swnmcog.org/regional-transportation/,https://swnmcog.org/tip/,https://www.dot.nm.gov/wp-content/uploads/2023/07/NMDOT-Statewide-ITS-Architecture-Final-Report-2023.pdf,https://swnmcog.org/agendas-minutes/,32.7775,-108.2798,88061
New Mexico,Farmington MPO,MPO,https://www.fmtn.org/226/Bids-Contracts,N/A,https://www.fmtn.org/219/Metropolitan-Planning-Organization,https://www.fmtn.org/DocumentCenter/View/26895/2022-2027-TIP-Adopted-5-12-2022,https://www.fmtn.org/DocumentCenter/View/1154/ITS-Master-Plan-PDF,https://www.fmtn.org/agendacenter,36.7281,-108.2187,87401
New Mexico,Mesilla Valley MPO,MPO,https://www.lascruces.gov/1403/Purchasing-Bids-RFPs,N/A,https://www.mvmpo.org/,https://www.mvmpo.org/237/Transportation-Improvement-Program-TIP,https://www.mvmpo.org/DocumentCenter/View/5829/MVMPO-ITS-Strategic-Plan-2022,https://www.mvmpo.org/164/Agendas-Minutes,32.3199,-106.7637,88001
New Mexico,Santa Fe MPO,MPO,https://www.santafenm.gov/purchase_bids_and_proposals,N/A,https://www.santafempo.org/,https://www.santafempo.org/transportation-improvement-program-tip,https://www.santafempo.org/userfiles/file/ITS/SFMPO_ITS_Update_Final_Report_2022.pdf,https://www.santafempo.org/meetings,35.687,-105.9378,87501
New Mexico,ABQ RIDE,Transit Agency,https://www.cabq.gov/dfa/purchasing-division,N/A,https://www.cabq.gov/transit/abq-ride-forward-network-plan,https://www.cabq.gov/transit/documents/abq-ride-forward-final-plan_2023.pdf,https://www.mrcog-nm.gov/DocumentCenter/View/6166/MRMPO-ITS-Strategic-Plan-2022,https://www.cabq.gov/transit/transit-advisory-board/transit-advisory-board-meetings,35.0844,-106.6504,87102
New Mexico,North Central RTD,Transit Agency,https://www.ncrtd.org/procurement/,N/A,https://www.ncrtd.org/about-us/,https://www.ncrtd.org/wp-content/uploads/2018/11/NCRTD-Service-Plan-2018-Web.pdf,https://www.dot.nm.gov/wp-content/uploads/2023/07/NMDOT-Statewide-ITS-Architecture-Final-Report-2023.pdf,https://www.ncrtd.org/meetings-agendas/,35.687,-105.9378,87501
New Mexico,Rio Metro RTD,Transit Agency,https://www.riometro.org/Bids.aspx,N/A,https://www.riometro.org/AgendaCenter,https://www.riometro.org/DocumentCenter/View/4066/FY24-28-Transit-Asset-Management-Plan,https://www.mrcog-nm.gov/DocumentCenter/View/6166/MRMPO-ITS-Strategic-Plan-2022,https://www.riometro.org/AgendaCenter,35.0844,-106.6504,87102
New Mexico,South Central RTD,Transit Agency,https://www.scrtd.org/procurement/,N/A,https://www.scrtd.org/plans-and-reports/,https://www.scrtd.org/wp-content/uploads/2023/07/SCRTD-Transit-Development-Plan-2023-Final-Report.pdf,https://www.dot.nm.gov/wp-content/uploads/2023/07/NMDOT-Statewide-ITS-Architecture-Final-Report-2023.pdf,https://www.scrtd.org/board-of-directors/,33.0784,-107.257,87901
New Mexico,Atomic City Transit,Transit Agency,https://www.losalamosnm.us/government/departments/administrative_services/procurement/bids___rfps,N/A,https://www.losalamosnm.us/government/departments/public_works/atomic_city_transit,https://www.losalamosnm.us/files/sharedassets/public/v/1/projects/public-works/2023-comprehensive-transit-plan/2023-01-11_final-report_los-alamos-ctp.pdf,https://www.dot.nm.gov/wp-content/uploads/2023/07/NMDOT-Statewide-ITS-Architecture-Final-Report-2023.pdf,https://losalamos.legistar.com/Calendar.aspx,35.8881,-106.3069,87544
New Mexico,Clovis Area Transit System (CATS),Transit Agency,https://www.cityofclovis.org/doing-business/bids-rfps/,N/A,https://www.cityofclovis.org/government/departments-a-h/cats/,N/A,https://www.dot.nm.gov/wp-content/uploads/2023/07/NMDOT-Statewide-ITS-Architecture-Final-Report-2023.pdf,https://www.cityofclovis.org/government/agendas-minutes/,34.4048,-103.2052,88101
New Mexico,Hobbs Express,Transit Agency,https://www.hobbsnm.org/government/departments/finance/purchasing/bids_and_rfps.php,N/A,https://www.hobbsnm.org/government/departments/hobbs_express/,N/A,https://www.dot.nm.gov/wp-content/uploads/2023/07/NMDOT-Statewide-ITS-Architecture-Final-Report-2023.pdf,https://www.hobbsnm.org/government/agendas_and_minutes/,32.7026,-103.136,88240
New Mexico,Pecos Trails Transit (Roswell),Transit Agency,https://www.roswell-nm.gov/bids.aspx,N/A,https://www.roswell-nm.gov/501/Pecos-Trails-Transit,N/A,https://www.dot.nm.gov/wp-content/uploads/2023/07/NMDOT-Statewide-ITS-Architecture-Final-Report-2023.pdf,https://www.roswell-nm.gov/134/Agendas-Minutes,33.3943,-104.523,88201
New Mexico,New Mexico Border Authority,Port Authority,https://www.nmborder.com/,N/A,https://www.nmborder.com/about-us/,https://www.nmborder.com/wp-content/uploads/2022/02/NMBorder-Authority-Strategic-Plan-2022-2026.pdf,N/A,https://www.nmborder.com/about-us/board-of-directors/meetings/,31.7731,-106.5919,88008
New Mexico,NMDOT Planning,State DOT,https://www.dot.nm.gov/planning-research-multimodal-and-safety/planning-division/multimodal-planning-and-programs-bureau/government-to-government/,N/A,https://www.dot.nm.gov/planning-research-multimodal-and-safety/planning-division/,https://www.dot.nm.gov/planning-research-multimodal-and-safety/planning-division/statewide-transportation-improvement-program-stip/,https://www.dot.nm.gov/wp-content/uploads/2023/07/NMDOT-Statewide-ITS-Architecture-Final-Report-2023.pdf,https://www.dot.nm.gov/contact-us/meetings-and-events/,35.687,-105.9378,87501
Virginia,Primary Portal (VDOT on Bid Express),Third-Party Platform,https://www.bidexpress.com,N/A,N/A,N/A,N/A,N/A,N/A,N/A,
Virginia,VDOT Business Center,State DOT,http://www.virginiadot.org/business/,N/A,https://www.vdot.virginia.gov/projects/,https://www.vdot.virginia.gov/projects/syip/,https://www.vdot.virginia.gov/info/ctb/its_strategic_plan.asp,https://www.ctb.virginia.gov/meetings/,37.5407,-77.436,23219
Virginia,Hampton Roads Transit (HRT),Transit Agency,https://gohrt.com/procurements/,N/A,https://gohrt.com/about/documents/,https://gohrt.com/wp-content/uploads/2023/10/FY2025-FY2030-TDP-FINAL-092823.pdf,https://www.hrtpo.org/page/regional-its-architecture/,https://gohrt.com/about/board-meetings/,36.8529,-76.2859,23510
Virginia,Arlington Transit (ART),Transit Agency,https://www.arlingtonva.us/Government/Programs/Budget-Finance/Purchasing,N/A,https://www.arlingtonva.us/Government/Programs/Transportation/Transit-Development-Plan,https://www.arlingtonva.us/files/sharedassets/public/transportation/documents/fy2023-2028-tdp-final.pdf,https://www.arlingtontransportationpartners.com/wp-content/uploads/2022/01/Arlington-County-Transportation-Plan-Update-2022.pdf,https://www.arlingtonva.us/Government/Commissions-and-Advisory-Groups/Transportation-Commission,38.8783,-77.1067,22201
Virginia,GRTC Transit System,Transit Agency,https://www.ridegrtc.com/business/procurement-bid-opportunities/,N/A,https://www.ridegrtc.com/about-us/reports-and-plans,https://www.ridegrtc.com/media/2023-11/FY24-29%20TDP%20FINAL%20DRAFT.pdf,https://planrva.org/transportation/its-architecture/,https://www.ridegrtc.com/about-us/board-of-directors/meetings,37.5407,-77.436,23220
West Virginia,WV Parkways Authority Purchasing,State Agency,https://transportation.wv.gov/Turnpike/purchasing/Pages/default.aspx,N/A,N/A,N/A,N/A,https://transportation.wv.gov/Turnpike/about/Pages/Meeting-Schedule-and-Agendas.aspx,38.3498,-81.6326,25305
West Virginia,WVDOT Procurement Page,State DOT,https://transportation.wv.gov/Procurement/Pages/default.aspx,N/A,https://transportation.wv.gov/highways/programplanning/Pages/default.aspx,https://transportation.wv.gov/highways/programplanning/STIP/Pages/default.aspx,https://transportation.wv.gov/highways/programplanning/ITS/Pages/default.aspx,https://transportation.wv.gov/highways/to/Pages/State-Transportation-Board-Meetings.aspx,38.3498,-81.6326,25305
West Virginia,Statewide Purchasing Division,State-level Portal,https://www.wv.gov/agencies/administration/purchasing/Pages/default.aspx,N/A,N/A,N/A,N/A,N/A,N/A,,
